CRE (WAAS/PRN 138)      
1 28868U 05036A   23002.71092497 -.00000063  00000+0  00000+0 0  9990
2 28868   1.0672  91.8346 0000826 208.8978 309.9534  1.00271958 33809
IOR-W (EGNOS/PRN 126)   
1 28899U 05044A   23003.24666318  .00000020  00000+0  00000+0 0  9993
2 28899   3.6600  39.1066 0003237 243.6633 332.5147  1.00270153 62855
QZS-1 (QZSS/PRN 183)    
1 37158U 10045A   23002.68922088 -.00000182  00000+0  00000+0 0  9994
2 37158  42.5509 130.6437 0757986 270.4579  85.4377  1.00256790 45093
GSAT-8 (GAGAN/PRN 127)  
1 37605U 11022A   23003.32966088  .00000097  00000+0  00000+0 0  9991
2 37605   0.0169  62.4730 0008807 204.9797   9.0042  1.00273772 42596
LUCH 5A (SDCM/PRN 140)  
1 37951U 11074B   23002.90907318 -.00000041  00000+0  00000+0 0  9996
2 37951   5.5198  93.9633 0002363 167.8080 334.6725  1.00273564 40543
SES-5 (EGNOS/PRN 136)   
1 38652U 12036A   23003.23541890  .00000046  00000+0  00000+0 0  9994
2 38652   0.0563 296.6457 0002183 342.0931 273.5757  1.00271754 38425
GSAT-10 (GAGAN/PRN 128) 
1 38779U 12051B   23003.53788146 -.00000153  00000+0  00000+0 0  9991
2 38779   0.0992  98.2759 0004890 179.2917 101.9656  1.00271649 37652
LUCH 5B (SDCM/PRN 125)  
1 38977U 12061A   23002.91368527 -.00000131  00000+0  00000+0 0  9996
2 38977   7.7236  61.1030 0002261 144.2995 209.4558  1.00270894 37528
ASTRA 5B (EGNOS/PRN 123)
1 39617U 14011B   23002.90674521  .00000166  00000+0  00000+0 0  9995
2 39617   0.0399  38.6657 0003601 236.3944 185.1085  1.00273529 32029
LUCH 5V (SDCM/PRN 141)  
1 39727U 14023A   23003.19910644 -.00000259  00000+0  00000+0 0  9995
2 39727   1.9812  77.2043 0002994 223.5628 328.1914  1.00273996549863
GSAT-15 (GAGAN/PRN 139) 
1 41028U 15065A   23003.53997340 -.00000245  00000+0  00000+0 0  9990
2 41028   0.0164  87.2592 0001941 170.7754 132.7465  1.00271424 26228
E 117 W B (WAAS/PRN 131)
1 41589U 16038B   23003.49795987  .00000001  00000+0  00000+0 0  9990
2 41589   0.0127 155.3283 0000215 268.3690 101.4102  1.00272128 24062
SES-15 (WAAS/PRN 133)   
1 42709U 17026A   23002.70656672  .00000072  00000+0  00000+0 0  9991
2 42709   0.0168 358.6116 0000432 269.6795 318.9913  1.00267070 21495
QZS-2 (QZSS/PRN 184)    
1 42738U 17028A   23003.54494028 -.00000155  00000+0  00000+0 0  9996
2 42738  41.4399 261.3345 0755566 269.6351 269.1309  1.00281248 20497
QZS-3 (QZSS/PRN 189)    
1 42917U 17048A   23003.22340965 -.00000336  00000+0  00000+0 0  9993
2 42917   0.0562 191.2149 0002279 105.5512  13.2267  1.00275671 19723
QZS-4 (QZSS/PRN 185)    
1 42965U 17062A   23002.81368800 -.00000364  00000+0  00000+0 0  9995
2 42965  40.7180 359.5598 0750956 271.8631 258.8664  1.00250617 19159
GALAXY 30 (WAAS/PRN 135)
1 46114U 20056C   23003.49639090  .00000049  00000+0  00000+0 0  9998
2 46114   0.0184  29.7407 0002212 251.9533 234.8542  1.00270954  8762
